[{"OBJECT_NAME":"STARLINK-34450","OBJECT_ID":"2025-130K","EPOCH":"2026-03-09T15:34:49.092384","MEAN_MOTION":15.30239893,"ECCENTRICITY":0.0001114,"INCLINATION":53.1599,"RA_OF_ASC_NODE":88.9546,"ARG_OF_PERICENTER":92.4011,"MEAN_ANOMALY":267.7118,"EPHEMERIS_TYPE":0,"CLASSIFICATION_TYPE":"U","NORAD_CAT_ID":64447,"ELEMENT_SET_NO":999,"REV_AT_EPOCH":4069,"BSTAR":0.0013433,"MEAN_MOTION_DOT":0.00039687,"MEAN_MOTION_DDOT":0},{"OBJECT_NAME":"KUIPER-00222","OBJECT_ID":"2026-030U","EPOCH":"2026-03-09T16:13:57.726048","MEAN_MOTION":15.32445377,"ECCENTRICITY":0.00128002,"INCLINATION":51.8817,"RA_OF_ASC_NODE":219.7147,"ARG_OF_PERICENTER":40.1845,"MEAN_ANOMALY":320.0084,"EPHEMERIS_TYPE":0,"CLASSIFICATION_TYPE":"U","NORAD_CAT_ID":67782,"ELEMENT_SET_NO":999,"REV_AT_EPOCH":508,"BSTAR":0.0017317201,"MEAN_MOTION_DOT":0.00055223,"MEAN_MOTION_DDOT":0}]
